STARLINK-33677          
1 63410U 25065M   26183.26609913  .00018367  00000+0  67508-3 0  9991
2 63410  42.9993 179.9401 0000853 255.7320 104.3437 15.27591630 70360
STARLINK-33647          
1 63411U 25065N   26183.70626482  .00017259  00000+0  63477-3 0  9991
2 63411  42.9990 185.0128 0003904 264.4713  95.5693 15.27600678 70341
STARLINK-33645          
1 63412U 25065P   26183.71558726  .00020444  00000+0  75006-3 0  9999
2 63412  43.0052 180.6902 0004037 274.9375  85.1016 15.27588944 70392
STARLINK-33670          
1 63413U 25065Q   26183.45839426  .00019529  00000+0  71704-3 0  9993
2 63413  43.0002 178.7736 0001840 270.8306  89.2335 15.27592909 70394
STARLINK-33644          
1 63414U 25065R   26183.70080330  .00006292  00000+0  23794-3 0  9993
2 63414  43.0067 178.0007 0002956 267.8555  92.1958 15.27584092 70423
STARLINK-33664          
1 63415U 25065S   26183.26993792 -.00013483  00000+0 -48089-3 0  9996
2 63415  43.0000 179.9322 0001467 265.4800  94.5884 15.27608510 70363
STARLINK-33649          
1 63416U 25065T   26183.25708985  .00017052  00000+0  62748-3 0  9996
2 63416  42.9986 179.8211 0001140 292.4137  67.6594 15.27593659 70368
STARLINK-33535          
1 63417U 25065U   26183.26865639  .00015883  00000+0  58529-3 0  9990
2 63417  42.9994 179.8945 0000703 258.5136 101.5637 15.27588719 70365
STARLINK-33703          
1 63418U 25065V   26183.68152775  .00013444  00000+0  49698-3 0  9995
2 63418  42.9971 177.8487 0002972 265.8674  94.1838 15.27591685 70421
STARLINK-33709          
1 63419U 25065W   26183.68539648  .00014519  00000+0  53574-3 0  9996
2 63419  42.9972 177.8787 0000750 300.3314  59.7464 15.27600970 70424
STARLINK-33698          
1 63420U 25065X   26183.70707869  .00009905  00000+0  36865-3 0  9990
2 63420  43.0081 177.1687 0004472 267.8909  92.1431 15.27605272 70439
STARLINK-33606          
1 63421U 25065Y   26183.46353144  .00013835  00000+0  51118-3 0  9992
2 63421  42.9986 178.7879 0001190 264.1469  95.9247 15.27590461 70391
STARLINK-33686          
1 63422U 25065Z   26183.66997942  .00018258  00000+0  67133-3 0  9993
2 63422  42.9973 177.7548 0001461 275.0702  84.9983 15.27581845 70427
STARLINK-33675          
1 63423U 25065AA  26183.70323727  .00011333  00000+0  42064-3 0  9996
2 63423  42.9951 177.1516 0000195  54.8779 305.2091 15.27584185 70433
STARLINK-33655          
1 63424U 25065AB  26183.69309723  .00008683  00000+0  32462-3 0  9990
2 63424  43.0005 177.9264 0001327 277.3344  82.7357 15.27587979 70427
STARLINK-33608          
1 63425U 25065AC  26183.66739742  .00014142  00000+0  52193-3 0  9996
2 63425  42.9968 177.7242 0002151 272.2855  87.7750 15.27612375 70426
STARLINK-33615          
1 63426U 25065AD  26183.68924116  .00013672  00000+0  50522-3 0  9991
2 63426  42.9990 177.9062 0002032 268.4280  91.6339 15.27592787 70422
HJS-6B                  
1 63429U 25067B   26183.79443583  .00003863  00000+0  19715-3 0  9992
2 63429  55.0009 319.4156 0009716  33.2807 326.8821 15.19005178 70318
HJS-6C                  
1 63430U 25067C   26183.79671488  .00021973  00000+0  10493-2 0  9996
2 63430  55.0029 319.4630 0009674  32.2153 327.9455 15.18991274 70309
HJS-6D                  
1 63431U 25067D   26183.79549154  .00010908  00000+0  52924-3 0  9993
2 63431  55.0015 319.4389 0007920  37.0620 323.0945 15.18999905 70300
TIANPING-3A 02          
1 63432U 25068A   26184.69479095  .00003497  00000+0  26248-3 0  9996
2 63432  43.0034 319.6813 0238435 339.8214  19.3321 14.84403358 67833
STARLINK-33682          
1 63433U 25069A   26183.65399519  .00015829  00000+0  29198-3 0  9994
2 63433  53.1599 321.5521 0001124  87.0046 273.1092 15.49318059 71103
STARLINK-33710          
1 63434U 25069B   26184.41675926 -.01227204  00000+0 -39026-1 0  9993
2 63434  53.1595 317.7482 0001480 112.7079 262.8992 15.35245247  5957
STARLINK-33733          
1 63435U 25069C   26183.64534547  .00024968  00000+0  74734-3 0  9997
2 63435  53.1616 322.9255 0001878  84.6708 275.4509 15.34412694 71087
STARLINK-33638          
1 63436U 25069D   26184.41675926 -.01682218  00000+0 -43458-1 0  9999
2 63436  53.1597 317.6474 0000826  96.5313 328.9228 15.42068345  5905
STARLINK-33726          
1 63437U 25069E   26183.80507184  .00049191  00000+0  88599-3 0  9993
2 63437  53.1577 320.3610 0000555  65.2721 294.8346 15.49339455 71086
STARLINK-33681          
1 63438U 25069F   26184.41675926 -.02862346  00000+0 -91733-1 0  9993
2 63438  53.1595 317.6535 0000680 120.0677 302.5500 15.35713720  6006
STARLINK-33730          
1 63439U 25069G   26184.41675926  .00032876  00000+0  97974-3 0  9992
2 63439  53.1593 319.2058 0000693  82.3428 279.4103 15.34405008  5861
STARLINK-33743          
1 63440U 25069H   26183.85127781  .00038090  00000+0  11331-2 0  9998
2 63440  53.1602 322.0747 0001142  73.2376 286.8752 15.34388916 71001
STARLINK-33715          
1 63441U 25069J   26184.41675926  .00034516  00000+0  10278-2 0  9999
2 63441  53.1595 317.7627 0001153  88.5364 275.8465 15.34405112  5902
STARLINK-33762          
1 63442U 25069K   26183.85969424  .00036672  00000+0  10918-2 0  9992
2 63442  53.1595 322.1308 0001362  77.8468 282.2687 15.34382364 71125
STARLINK-33753          
1 63443U 25069L   26183.64745219  .00023184  00000+0  69593-3 0  9992
2 63443  53.1603 322.9378 0001580  63.6542 296.4623 15.34365155 71079
STARLINK-33747          
1 63444U 25069M   26183.66007546  .00009886  00000+0  30330-3 0  9999
2 63444  53.1604 323.0173 0001289  70.2095 289.9046 15.34404044 71021
STARLINK-33659          
1 63445U 25069N   26184.41675926 -.01208113  00000+0 -27594-1 0  9990
2 63445  53.1591 317.6734 0000910  77.5990 332.7758 15.45143602  6008
STARLINK-33746          
1 63446U 25069P   26183.78824112  .00035362  00000+0  10531-2 0  9998
2 63446  53.1596 322.3916 0000979 119.7617 240.3483 15.34389848 71057
STARLINK-33799          
1 63447U 25069Q   26183.66188492  .00028380  00000+0  96730-3 0  9998
2 63447  53.1608 328.7127 0001246  82.5563 277.5579 15.30178994 70894
STARLINK-33797          
1 63448U 25069R   26183.80506830  .00043111  00000+0  12789-2 0  9995
2 63448  53.1624 322.5008 0000307 178.8578 181.2425 15.34421460 71047
STARLINK-33798          
1 63449U 25069S   26183.80718134  .00023468  00000+0  70439-3 0  9998
2 63449  53.1585 322.4974 0001440  65.6691 294.4462 15.34360951 70834
STARLINK-33736          
1 63450U 25069T   26184.41675926  .00031071  00000+0  92675-3 0  9994
2 63450  53.1630 319.3845 0000881 100.0158 168.7072 15.34405929  5911
STARLINK-33740          
1 63451U 25069U   26184.41675926  .00036367  00000+0  10481-2 0  9992
2 63451  53.1601 317.7842 0001123  86.4517 266.8917 15.35411056  5956
STARLINK-33763          
1 63452U 25069V   26183.66638486  .00041364  00000+0  12291-2 0  9993
2 63452  53.1611 323.0407 0001645  77.5587 282.5600 15.34388664 71080
STARLINK-33784          
1 63453U 25069W   26183.79145744  .00020408  00000+0  69975-3 0  9996
2 63453  53.1620 328.1009 0001269  92.7748 267.3399 15.30177061 71028
STARLINK-33768          
1 63454U 25069X   26183.79875578  .00037173  00000+0  11056-2 0  9995
2 63454  53.1607 322.4441 0001066  94.7304 265.3820 15.34407524 71094
STARLINK-33761          
1 63455U 25069Y   26183.64955358  .00022619  00000+0  67946-3 0  9994
2 63455  53.1610 322.9340 0001095  63.4480 296.6635 15.34357237 71087
STARLINK-33737          
1 63456U 25069Z   26183.78403598  .00035572  00000+0  10598-2 0  9996
2 63456  53.1611 322.3457 0001302  62.5092 297.6043 15.34374285 70997
STARLINK-33795          
1 63457U 25069AA  26183.67269931  .00030094  00000+0  89845-3 0  9992
2 63457  53.1640 323.0871 0000971  56.3551 303.7544 15.34392490 70971
STARLINK-33756          
1 63458U 25069AB  26183.66217640  .00027591  00000+0  82373-3 0  9999
2 63458  53.1601 323.0068 0001377  82.5611 277.5548 15.34438004 71083
STARLINK-33780          
1 63459U 25069AC  26183.67058775  .00031915  00000+0  95214-3 0  9996
2 63459  53.1597 323.0630 0000325 131.1325 228.9706 15.34384708 70972
STARLINK-33679          
1 63460U 25070A   26183.77278917  .00027673  00000+0  10119-2 0  9999
2 63460  43.0025 330.1886 0001637 287.6891  72.3781 15.27562741 70579
STARLINK-33706          
1 63461U 25070B   26183.77664020  .00012885  00000+0  47715-3 0  9996
2 63461  42.9989 330.1882 0000692 269.5486  90.5286 15.27565602 70573
STARLINK-33691          
1 63462U 25070C   26183.79063376  .00017874  00000+0  65792-3 0  9994
2 63462  43.0017 329.4272 0000377 358.2381   1.8470 15.27556782 70537
STARLINK-33696          
1 63463U 25070D   26183.81632810  .00021613  00000+0  79297-3 0  9994
2 63463  43.0009 329.6266 0001920 289.2266  70.8378 15.27564880 70580
STARLINK-33701          
1 63464U 25070E   26183.78049138  .00013646  00000+0  50461-3 0  9995
2 63464  43.0025 330.2145 0001513 287.0323  73.0363 15.27573169 70579
STARLINK-33685          
1 63465U 25070F   26183.76250136  .00019690  00000+0  72339-3 0  9999
2 63465  43.0014 330.0804 0001474 257.5426 102.5261 15.27567538 70578
STARLINK-33654          
1 63466U 25070G   26183.68683225  .00003951  00000+0  15304-3 0  9992
2 63466  42.9998 330.3703 0001825 283.6312  76.4336 15.27580971 70560
STARLINK-33697          
1 63467U 25070H   26183.82018571  .00036738  00000+0  13384-2 0  9999
2 63467  42.9997 329.6670 0001798 284.4293  75.6359 15.27568650 70588
STARLINK-33720          
1 63468U 25070J   26183.69069283  .00024299  00000+0  89015-3 0  9995
2 63468  43.0003 330.3993 0001657 282.5755  77.4911 15.27560306 70564
STARLINK-33587          
1 63469U 25070K   26183.80604750  .00021882  00000+0  80271-3 0  9993
2 63469  43.0032 329.5415 0001962 295.0983  64.9665 15.27564875 70581
STARLINK-33637          
1 63470U 25070L   26183.78434774  .00023535  00000+0  86256-3 0  9995
2 63470  43.0026 330.2413 0001490 281.2926  78.7758 15.27560003 70577
